OPTICUBE 04             
1 41851U 16067D   19185.18968772 -.00000364  00000-0 -26442-4 0  9998
2 41851  97.9169 282.9885 0008461 341.4693  18.6219 14.96807688144231
AEROCUBE 8D             
1 41852U 16067E   19185.19339418 -.00000103  00000-0 -36801-5 0  9991
2 41852  97.9178 282.8173 0009123 340.6923  19.3951 14.96717751144214
AEROCUBE 8C             
1 41853U 16067F   19184.81556207  .00000609  00000-0  58627-4 0  9995
2 41853  97.9181 282.3696 0009266 344.8910  15.2033 14.96683100144153
PROMETHEUS 2-1          
1 41854U 16067G   19184.84755774 -.00000299  00000-0 -20731-4 0  9991
2 41854  97.9191 282.5433 0009874 343.4280  16.6617 14.96904480144167
PROMETHEUS 2-3          
1 41855U 16067H   19185.18407510 -.00000273  00000-0 -18434-4 0  9991
2 41855  97.9192 282.9005 0010040 342.0266  18.0598 14.96908627144211
INS-1B                  
1 41954U 17008G   19185.18868316  .00001001  00000-0  44254-4 0  9999
2 41954  97.3991 250.0276 0010986  91.6075 268.6421 15.23965567132168
BGUSAT                  
1 41999U 17008BD  19184.62626789  .00001531  00000-0  62049-4 0  9992
2 41999  97.4067 251.9024 0009969 104.6933 255.5411 15.26141380131570
DIDO-2                  
1 42000U 17008BE  19185.17828458  .00000618  00000-0  28497-4 0  9998
2 42000  97.4003 250.5650 0010200 107.3287 252.9067 15.23910904131566
PEASSS                  
1 42015U 17008BV  19184.86978008  .00000842  00000-0  36724-4 0  9997
2 42015  97.4012 251.2397 0008044 111.6240 248.5855 15.24875588132069
AL-FARABI 1             
1 42016U 17008BW  19185.19030308  .00001134  00000-0  47567-4 0  9999
2 42016  97.4029 252.1144 0007921 109.8947 250.3145 15.25514030132262
NAYIF-1 (EO-88)         
1 42017U 17008BX  19185.17747648  .00001120  00000-0  46989-4 0  9992
2 42017  97.4024 252.1119 0007881 110.1349 250.0738 15.25547373132289
ALTAIR PATHFINDER       
1 42711U 98067LS  19184.32184445  .00030469  00000-0  15236-3 0  9991
2 42711  51.6318 213.8492 0000107 157.8896 202.2111 15.81537408121401
NJUST-1                 
1 42722U 98067MB  19185.23419318  .00330028  62931-4  39132-3 0  9994
2 42722  51.6263 184.8029 0004848  26.7268  80.4196 16.07921968120931
NSIGHT                  
1 42726U 98067MF  19185.16258643  .00015015  00000-0  11776-3 0  9997
2 42726  51.6345 229.5508 0003602 244.6738 115.3887 15.71796124120259
UCLSAT                  
1 42765U 17036A   19184.84824589  .00000860  00000-0  39766-4 0  9991
2 42765  97.3501 242.5345 0011800 168.0790 192.0728 15.22754695112770
LITUANICASAT-2          
1 42768U 17036D   19185.15517295  .00001511  00000-0  67387-4 0  9996
2 42768  97.3536 242.4444 0015786 159.7058 200.4810 15.22815994112665
AALTO-1                 
1 42775U 17036L   19184.59315188  .00000564  00000-0  28170-4 0  9992
2 42775  97.3485 240.9996 0014533 161.6012 198.5753 15.21344912112470
URSA MAIOR              
1 42776U 17036M   19184.61839044  .00000622  00000-0  30629-4 0  9995
2 42776  97.3495 241.1765 0014377 161.3964 198.7800 15.21477978112483
COMPASS 2               
1 42777U 17036N   19184.38397679  .00001230  00000-0  55323-4 0  9997
2 42777  97.3534 242.1509 0013082 162.2022 197.9675 15.22906405112509
DIAMOND RED             
1 42783U 17036U   19184.83319019  .00000713  00000-0  34009-4 0  9999
2 42783  97.3501 242.1096 0012456 169.6561 190.4934 15.22209123112558
PEGASUS                 
1 42784U 17036V   19184.80938294  .00000795  00000-0  37228-4 0  9995
2 42784  97.3505 242.3126 0012351 169.2485 190.9018 15.22502218112564
DIAMOND GREEN           
1 42785U 17036W   19185.16066537  .00000678  00000-0  32470-4 0  9992
2 42785  97.3503 242.4544 0012363 169.1029 191.0477 15.22210642112595
DIAMOND BLUE            
1 42786U 17036X   19184.83110707  .00000734  00000-0  34908-4 0  9996
2 42786  97.3503 242.1302 0012162 170.3377 189.8096 15.22207402112550
NUDTSAT                 
1 42787U 17036Y   19185.12617912  .00001035  00000-0  46289-4 0  9990
2 42787  97.3532 243.3232 0010423 166.2540 193.8982 15.23468651112490
SUCHAI                  
1 42788U 17036Z   19184.81239023  .00000967  00000-0  44125-4 0  9999
2 42788  97.3510 242.6243 0011945 168.1314 192.0207 15.22919081112657
SKCUBE                  
1 42789U 17036AA  19184.10633256  .00000860  00000-0  39690-4 0  9991
2 42789  97.3506 241.8734 0011722 170.5898 189.5560 15.22816995112468
VZLUSAT-1               
1 42790U 17036AB  19184.85028650  .00001243  00000-0  54996-4 0  9993
2 42790  97.3521 243.0570 0011438 166.7039 193.4502 15.23467906112608
ROBUSTA-1B              
1 42792U 17036AD  19184.82407173  .00000987  00000-0  44903-4 0  9994
2 42792  97.3507 242.7269 0011364 168.5423 191.6075 15.22985267112597
CICERO 6                
1 42793U 17036AE  19185.15068811  .00000649  00000-0  30901-4 0  9992
2 42793  97.3490 242.8215 0010597 168.5777 191.5702 15.22583320112703
D-SAT                   
1 42794U 17036AF  19185.10817998  .00000124  00000-0  15952-4 0  9993
2 42794  97.5382 229.1322 0128219  90.3289 271.2623 14.91101014110633
CORVUS BC2              
1 42846U 17042X   19184.70211633  .00000130  00000-0  18164-4 0  9992
2 42846  97.5645  78.1056 0009985  14.4302 345.7200 14.91976651107259
CORVUS BC1              
1 42847U 17042Y   19184.25197682  .00000293  00000-0  34153-4 0  9996
2 42847  97.5645  77.7821 0009635  15.5790 344.5724 14.92076965107180
MIRATA                  
1 43015U 17073C   19184.97524389  .00000732  00000-0  61706-4 0  9997
2 43015  97.7193 105.5948 0256796 107.8571 255.0827 14.78982444 87552
MAKERSAT 0              
1 43016U 17073D   19184.31517814  .00000466  00000-0  41118-4 0  9990
2 43016  97.7227 105.1605 0258939 110.3775 252.5454 14.78735995 87457
ASTERIA                 
1 43020U 98067NH  19185.12848007  .00014608  00000-0  11805-3 0  9990
2 43020  51.6414 240.7914 0001184 165.2091 194.8942 15.71104873 92282
DELLINGR (RBLE)         
1 43021U 98067NJ  19185.18186220  .00005698  00000-0  66577-4 0  9995
2 43021  51.6375 253.7929 0002035 152.5163 207.5939 15.63289567 92119
AEROCUBE 7B (OCSD B)    
1 43042U 17071F   19184.87184765  .00002282  00000-0  63684-4 0  9993
2 43042  51.6392 338.7029 0004459 202.2603 157.8189 15.41248658 88425
AEROCUBE 7C (OCSD C)    
1 43043U 17071G   19184.87183817  .00002294  00000-0  63966-4 0  9997
2 43043  51.6393 338.7167 0004664 207.0974 152.9768 15.41247826 88393
CHEFSAT                 
1 43044U 17071H   19184.83607283  .00004865  00000-0  11433-3 0  9999
2 43044  51.6395 333.3479 0004531 204.6974 155.3796 15.43914433 88462
ASGARDIA 1              
1 43049U 17071N   19184.69287026  .00002427  00000-0  66807-4 0  9995
2 43049  51.6400 339.0522 0002042 216.8427 143.2418 15.41370178 88365
ISARA                   
1 43050U 17071P   19184.79192572  .00003597  00000-0  88324-4 0  9996
2 43050  51.6388 334.5100 0001973 211.5178 148.5690 15.43418825 88444
PROPCUBE 2 (FAUNA)      
1 43052U 17071R   19184.82551654  .00002661  00000-0  71693-4 0  9994
2 43052  51.6400 337.7061 0002024 212.5051 147.5810 15.41652023 88396
CORVUS BC3              
1 43118U 18004H   19184.65301852  .00000548  00000-0  26429-4 0  9997
2 43118  97.4859 251.9610 0010078 190.6269 169.4756 15.22852852 81753
MICROMAS-2A             
1 43131U 18004W   19184.18725426  .00001205  00000-0  52513-4 0  9991
2 43131  97.4885 252.2166 0009017 192.5798 167.5215 15.24138444 81728
CICERO 7                
1 43143U 18004AJ  19185.19408785  .00001195  00000-0  51898-4 0  9995
2 43143  97.4871 253.4371 0006978 196.3065 163.7949 15.24273500 81892
GOMX-4B                 
1 43196U 18015E   19184.93747461  .00000406  00000-0  19698-4 0  9999
2 43196  97.3926 312.2636 0017717 254.8073 105.1206 15.23947835 78665
GOMX-4A                 
1 43197U 18015F   19185.20270899  .00000403  00000-0  19518-4 0  9995
2 43197  97.3939 312.5501 0017601 251.9722 227.6993 15.24043086 78710
1KUNS-PF                
1 43466U 98067NP  19184.52412783  .00014125  00000-0  13743-3 0  9992
2 43466  51.6368 259.1210 0000069 332.0078  28.0914 15.66567664 65245
UBAKUSAT                
1 43467U 98067NQ  19184.75801767  .00008719  00000-0  99698-4 0  9998
2 43467  51.6369 262.1843 0002172 119.4496 240.6715 15.63047584 65232
BATSU-CS1 (IRAZU)       
1 43468U 98067NR  19185.18630594  .00019230  00000-0  16382-3 0  9993
2 43468  51.6351 252.2666 0000683 334.3812  25.7151 15.69582239165382
CUBERRT                 
1 43546U 98067NU  19184.45589392  .00020852  00000-0  21095-3 0  9997
2 43546  51.6377 264.6654 0003880 189.8234 170.2686 15.65252218 55300
TEMPEST-D               
1 43547U 98067NV  19184.80110143  .00002867  00000-0  44049-4 0  9992
2 43547  51.6383 270.7210 0005566 176.8718 183.2310 15.58046764 54935
RAINCUBE                
1 43548U 98067NW  19184.83019066  .00008868  00000-0  10676-3 0  9993
2 43548  51.6367 266.4005 0004967 191.4189 168.6693 15.61670983 55449
HALOSAT                 
1 43549U 98067NX  19185.21850147  .00009520  00000-0  11429-3 0  9993
2 43549  51.6373 264.5058 0004950 194.7502 165.3348 15.61641452 55069
ENDUROSAT ONE           
1 43551U 98067NZ  19184.45750001  .00010560  00000-0  11888-3 0  9994
2 43551  51.6374 266.1764 0005130 203.1987 156.8777 15.63177573 55384
EQUISAT                 
1 43552U 98067PA  19185.21713826  .00008592  00000-0  10263-3 0  9992
2 43552  51.6384 263.7709 0005573 203.1072 156.9672 15.61924049 55442
AEROCUBE 12A            
1 43556U 18046C   19184.81817238  .00000268  00000-0  22142-4 0  9994
2 43556  51.6435 344.0935 0009027 122.1676 238.0181 15.28738122 53875
AEROCUBE 12B            
1 43557U 18046D   19184.83295023  .00000724  00000-0  38331-4 0  9993
2 43557  51.6439 344.1882 0008995 122.3580 237.8272 15.28611409 53822
UITMSAT-1               
1 43589U 98067PD  19184.64342985  .00010068  00000-0  11869-3 0  9996
2 43589  51.6362 267.3862 0004844 210.9634 149.1075 15.62041040 51087
